{
  "norad_id": 37792,
  "name": "APRIZESAT 5",
  "history": [
    {
      "epoch": "2026-03-28T17:48:44.694144",
      "apogee_km": 662.1561054529893,
      "perigee_km": 590.7448962488152,
      "latitude_deg": 4.069553545188553,
      "longitude_deg": -169.5503398401197,
      "semi_major_axis_km": 7004.587500850902,
      "eccentricity": 0.00509746,
      "inclination_deg": 98.2414,
      "raan_deg": 18.5335,
      "arg_perigee_deg": 261.7105,
      "mean_anomaly_deg": 97.8324,
      "mean_motion_rev_day": 14.80910849
    }
  ]
}